ONEWEB-0693             
1 61601U 24188H   24312.83334491 -.00005151  00000+0 -63826-3 0  9995
2 61601  86.5714 162.5123 0002800 126.6145 342.7168 14.83028278  3942
ONEWEB-0695             
1 61602U 24188J   24312.83334491 -.00005357  00000+0 -66609-3 0  9996
2 61602  86.5772 162.5253 0002963 123.3142 341.9274 14.82875554  3970
ONEWEB-0697             
1 61603U 24188K   24312.83334491 -.00005012  00000+0 -62440-3 0  9994
2 61603  86.5724 162.5154 0002673 137.5060 321.2297 14.82807255  3993
ONEWEB-0698             
1 61604U 24188L   24312.83334491 -.00007165  00000+0 -89018-3 0  9996
2 61604  86.5801 162.4994 0006023 140.9447  29.1642 14.82854709  3760
ONEWEB-0699             
1 61605U 24188M   24312.88621839  .00006169  00000+0  76508-3 0  9998
2 61605  86.5762 162.5065 0001830 143.2334 216.9014 14.82519242  3869
ONEWEB-0700             
1 61606U 24188N   24312.83334491 -.00005480  00000+0 -68275-3 0  9998
2 61606  86.5739 162.5131 0002841 129.6507 340.7346 14.82784227  3907
ONEWEB-0701             
1 61607U 24188P   24312.58334491  .00018204  00000+0  22403-2 0  9999
2 61607  86.5793 162.6226 0004947 132.8486 114.3338 14.82880161  4029
ONEWEB-0702             
1 61608U 24188Q   24312.83334491 -.00007038  00000+0 -88117-3 0  9998
2 61608  86.5822 162.5009 0006063 140.9045  22.7987 14.82536904  3803
ONEWEB-0704             
1 61609U 24188R   24312.83334491 -.00005096  00000+0 -64106-3 0  9993
2 61609  86.5786 162.5306 0002109 142.7207 298.7133 14.82395977  3867
ONEWEB-0705             
1 61610U 24188S   24312.83334491 -.00006590  00000+0 -81796-3 0  9999
2 61610  86.5798 162.5147 0005122 132.0079  12.1529 14.82909865  3990
ONEWEB-0706             
1 61611U 24188T   24312.83334491 -.00006808  00000+0 -84771-3 0  9998
2 61611  86.5815 162.5100 0005641 138.7882  20.2430 14.82771108  3832
ONEWEB-0707             
1 61612U 24188U   24312.83334491 -.00005237  00000+0 -65256-3 0  9991
2 61612  86.5770 162.5278 0002630 139.1974 316.1388 14.82791244  3765
ONEWEB-0708             
1 61613U 24188V   24312.83334491 -.00005762  00000+0 -71679-3 0  9991
2 61613  86.5757 162.5149 0003495 130.7025 347.1602 14.82840592  3991
2024-189A               
1 61614U 24189A   24312.85171631  .00013665  00000+0  10672-2 0  9994
2 61614  97.6319 337.4838 0009575 201.2858 158.7969 15.01197424  2521
2024-189B               
1 61615U 24189B   24312.85192561  .00008739  00000+0  68719-3 0  9992
2 61615  97.6315 337.4832 0010544 217.2101 142.8393 15.01045743  2495
2024-189C               
1 61616U 24189C   24312.85158262  .00008786  00000+0  69059-3 0  9993
2 61616  97.6306 337.4814 0009932 253.6443 106.3689 15.01068694  2491
2024-190A               
1 61617U 24190A   24311.40556877 -.00001823  00000+0 -72797-4 0  9991
2 61617  34.9932 294.6482 0004292  59.4124  67.4132 15.23605998  2193
2024-190B               
1 61618U 24190B   24312.62827235  .00031185  00000+0  12909-2 0  9995
2 61618  34.9889 286.9600 0003860  94.7338 265.3818 15.22986704  2387
2024-190C               
1 61619U 24190C   24312.62775357  .00011234  00000+0  46483-3 0  9991
2 61619  34.9982 286.9589 0005899  65.6070 294.5260 15.23155605  2342
CZ-2C R/B               
1 61620U 24190D   24312.60400818  .00827377  12063-5  11529-2 0  9991
2 61620  35.0065 278.8654 0145158 177.6926 182.4505 15.87702065  2398
STARLINK-32302          
1 61621U 24191A   24312.83334491 -.01342760  00000+0 -11127-1 0  9997
2 61621  43.0005  44.9581 0001719 289.0063 169.6536 15.72119325  3596
STARLINK-32364          
1 61622U 24191B   24312.83334491 -.01344658  00000+0 -11144-1 0  9995
2 61622  43.0004  44.9474 0001742 285.9432 176.5501 15.72120462  3535
STARLINK-32331          
1 61623U 24191C   24312.83334491 -.01343209  00000+0 -11131-1 0  9993
2 61623  43.0006  44.9528 0001725 289.3667 171.2098 15.72119643  3483
STARLINK-32398          
1 61624U 24191D   24312.83334491 -.01340766  00000+0 -11110-1 0  9996
2 61624  43.0004  44.9427 0001528 291.3504 173.0605 15.72118085  3533
STARLINK-32365          
1 61625U 24191E   24312.83334491 -.01344075  00000+0 -11139-1 0  9995
2 61625  43.0005  44.9373 0001691 289.1575 177.1698 15.72120106  3588
STARLINK-32333          
1 61626U 24191F   24312.83334491 -.01344543  00000+0 -11143-1 0  9991
2 61626  43.0005  44.9231 0001724 289.8093 182.2684 15.72120501  3537
STARLINK-32399          
1 61627U 24191G   24312.83334491 -.01344746  00000+0 -11145-1 0  9999
2 61627  43.0004  44.9327 0001694 288.8848 179.3591 15.72120580  3481
STARLINK-32421          
1 61628U 24191H   24312.83334491 -.01343925  00000+0 -11138-1 0  9990
2 61628  43.0004  44.9278 0001631 288.6318 181.5294 15.72119905  3549
STARLINK-32403          
1 61629U 24191J   24312.83334491 -.01343601  00000+0 -11135-1 0  9999
2 61629  43.0003  44.9181 0001640 290.6371 183.3577 15.72119780  3538
STARLINK-32390          
1 61630U 24191K   24312.83334491 -.01344063  00000+0 -11139-1 0  9998
2 61630  43.0004  44.9133 0001678 290.1000 185.8118 15.72120017  3480
STARLINK-32348          
1 61631U 24191L   24312.83334491 -.01343374  00000+0 -11133-1 0  9997
2 61631  43.0004  44.9079 0001636 290.3763 187.4524 15.72119603  3536
STARLINK-32455          
1 61632U 24191M   24312.83334491 -.01346196  00000+0 -11158-1 0  9990
2 61632  43.0004  44.9033 0001703 289.3314 190.4135 15.72121505  3549
STARLINK-32396          
1 61633U 24191N   24312.83334491 -.01345630  00000+0 -11153-1 0  9998
2 61633  43.0005  44.8983 0001697 289.6266 192.0354 15.72121030  3549
STARLINK-32355          
1 61634U 24191P   24312.83334491 -.01344525  00000+0 -11145-1 0  9992
2 61634  43.0004  44.8928 0001336 285.8580 197.7220 15.72119976  3534
STARLINK-32370          
1 61635U 24191Q   24312.83334491 -.01345274  00000+0 -11150-1 0  9991
2 61635  43.0004  44.8882 0001660 290.0916 195.4045 15.72120761  3539
STARLINK-32405          
1 61636U 24191R   24312.83334491 -.01346433  00000+0 -11161-1 0  9992
2 61636  43.0003  44.8829 0001569 286.6951 200.7183 15.72121252  3537
STARLINK-32419          
1 61637U 24191S   24312.83334491 -.01347404  00000+0 -11169-1 0  9990
2 61637  43.0004  44.8783 0001681 289.1577 200.1717 15.72122245  3546
STARLINK-32320          
1 61638U 24191T   24312.83334491 -.01347408  00000+0 -11169-1 0  9995
2 61638  43.0001  44.8734 0001692 289.4397 201.8065 15.72122199  3592
STARLINK-32341          
1 61639U 24191U   24312.83334491 -.01348622  00000+0 -11180-1 0  9998
2 61639  43.0002  44.8686 0001679 288.4858 204.6771 15.72122975  3537
STARLINK-32339          
1 61640U 24191V   24312.83334491 -.01349186  00000+0 -11185-1 0  9991
2 61640  43.0002  44.8586 0001696 287.9716 209.0250 15.72123309  3548
STARLINK-32327          
1 61641U 24191W   24312.83334491 -.01348388  00000+0 -11178-1 0  9997
2 61641  43.0001  44.8637 0001670 289.1096 205.9703 15.72122701  3534
STARLINK-32264          
1 61642U 24191X   24312.83334491 -.01348259  00000+0 -11177-1 0  9994
2 61642  43.0001  44.8496 0001643 288.9382 211.8925 15.72122552  3539
STARLINK-32337          
1 61643U 24191Y   24312.83334491 -.01347797  00000+0 -11173-1 0  9997
2 61643  43.0002  44.8544 0001605 290.2039 208.7101 15.72122342  3592
STARLINK-32238          
1 61661U 24193A   24312.58334491 -.00990503  00000+0 -73026-2 0  9995
2 61661  53.1548 200.8230 0000749  83.1938  25.7927 15.74689984  2987
STARLINK-32310          
1 61662U 24193B   24312.58334491 -.00977339  00000+0 -71918-2 0  9996
2 61662  53.1546 200.8191 0000892  68.1769  42.6997 15.74701398  3098
STARLINK-32308          
1 61663U 24193C   24312.83334491 -.00167312  00000+0 -11792-2 0  9991
2 61663  53.1550 199.5746 0000499 138.0730 312.6309 15.73828616  3002
STARLINK-32301          
1 61664U 24193D   24312.83334491  .00000786  00000+0  98145-5 0  9991
2 61664  53.1551 199.5667 0000923  67.5289  27.0549 15.73744265  3003
STARLINK-32439          
1 61665U 24193E   24312.83334491 -.00010839  00000+0 -71201-4 0  9997
2 61665  53.1549 199.5708 0000887  63.8150  28.8432 15.73740627  3055
STARLINK-32428          
1 61666U 24193F   24312.83334491  .00114969  00000+0  79601-3 0  9996
2 61666  53.1550 199.5626 0000933 122.2344 334.2812 15.73675221  3103
STARLINK-32414          
1 61667U 24193G   24312.83334491  .00063846  00000+0  44609-3 0  9994
2 61667  53.1549 199.5589 0000875  60.1575  38.2768 15.73705947  3101
STARLINK-32441          
1 61668U 24193H   24312.83334491  .00022860  00000+0  16314-3 0  9998
2 61668  53.1550 199.5551 0001128  96.9646   3.3774 15.73727543  3051
STARLINK-32400          
1 61669U 24193J   24312.83334491 -.00008630  00000+0 -55788-4 0  9999
2 61669  53.1548 199.5506 0001173  94.3943   7.8677 15.73738787  3100
STARLINK-32449          
1 61670U 24193K   24312.83334491  .00050600  00000+0  35476-3 0  9994
2 61670  53.1547 199.5472 0001056  82.5155  21.6519 15.73721263  3051
STARLINK-32453          
1 61671U 24193L   24312.83334491 -.00011895  00000+0 -78551-4 0  9992
2 61671  53.1547 199.5432 0001258  94.9852  11.1039 15.73745187  3055
STARLINK-32443          
1 61672U 24193M   24312.83334491 -.00064020  00000+0 -44408-3 0  9994
2 61672  53.1550 199.5394 0001194  76.0246  31.9727 15.73772359  3059
STARLINK-32417          
1 61673U 24193N   24312.83334491  .00120093  00000+0  82943-3 0  9992
2 61673  53.1547 199.5355 0000733  69.2518  40.6274 15.73713386  3102
STARLINK-32326          
1 61674U 24193P   24312.83334491 -.00047117  00000+0 -32508-3 0  9992
2 61674  53.1547 199.5316 0000572  89.9064  21.9199 15.73769991  3017
STARLINK-32294          
1 61675U 24193Q   24312.83334491 -.00020610  00000+0 -13927-3 0  9996
2 61675  53.1547 199.5279 0000663  92.9437  20.7678 15.73774985  3103
